{
  "norad_id": 66683,
  "name": "6GSTARLAB",
  "history": [
    {
      "epoch": "2026-03-28T18:39:50.964480Z",
      "apogee_km": 515.1422570743262,
      "perigee_km": 509.2032234967837,
      "latitude_deg": 1.1870513663568211e-05,
      "longitude_deg": 56.48630089912069,
      "height_km": 515.0019476682753,
      "semi_major_axis_km": 6890.309740285555,
      "eccentricity": 0.00043097,
      "inclination_deg": 97.429,
      "raan_deg": 162.6419,
      "arg_perigee_deg": 275.0744,
      "mean_anomaly_deg": 84.9998,
      "mean_motion_rev_day": 15.17905184
    },
    {
      "epoch": "2026-03-29T04:09:25.015680Z",
      "apogee_km": 515.1355200341268,
      "perigee_km": 509.1809269020059,
      "latitude_deg": -4.161396782439322e-05,
      "longitude_deg": -85.90712727848491,
      "height_km": 515.0870086831669,
      "semi_major_axis_km": 6890.295223468066,
      "eccentricity": 0.0004321,
      "inclination_deg": 97.429,
      "raan_deg": 163.0302,
      "arg_perigee_deg": 273.1408,
      "mean_anomaly_deg": 86.9331,
      "mean_motion_rev_day": 15.17909981
    },
    {
      "epoch": "2026-03-29T23:08:32.937504Z",
      "apogee_km": 515.1117951287824,
      "perigee_km": 509.1638342977294,
      "latitude_deg": 6.923179126029813e-05,
      "longitude_deg": -10.693357019376386,
      "height_km": 515.2669379039687,
      "semi_major_axis_km": 6890.274814713255,
      "eccentricity": 0.00043162,
      "inclination_deg": 97.4289,
      "raan_deg": 163.8067,
      "arg_perigee_deg": 269.284,
      "mean_anomaly_deg": 90.79,
      "mean_motion_rev_day": 15.17916725
    },
    {
      "epoch": "2026-03-30T18:07:40.433376Z",
      "apogee_km": 515.1036932048873,
      "perigee_km": 509.11909905794346,
      "latitude_deg": 2.0986971425042212e-05,
      "longitude_deg": 64.52231401787279,
      "height_km": 515.4375826104892,
      "semi_major_axis_km": 6890.248396131416,
      "eccentricity": 0.00043428,
      "inclination_deg": 97.429,
      "raan_deg": 164.5833,
      "arg_perigee_deg": 265.5118,
      "mean_anomaly_deg": 94.562,
      "mean_motion_rev_day": 15.17925455
    },
    {
      "epoch": "2026-03-31T03:37:14.021472Z",
      "apogee_km": 515.1394988494458,
      "perigee_km": 509.0570747476713,
      "latitude_deg": -2.8406862095612368e-05,
      "longitude_deg": -77.86927931397653,
      "height_km": 515.5284146975264,
      "semi_major_axis_km": 6890.235286798558,
      "eccentricity": 0.00044138,
      "inclination_deg": 97.4289,
      "raan_deg": 164.9715,
      "arg_perigee_deg": 263.6187,
      "mean_anomaly_deg": 96.4544,
      "mean_motion_rev_day": 15.17929787
    },
    {
      "epoch": "2026-04-01T11:15:45.469728Z",
      "apogee_km": 515.0808269429381,
      "perigee_km": 509.05740875471474,
      "latitude_deg": 6.832654255712956e-05,
      "longitude_deg": 167.4943819167187,
      "height_km": 515.8215523908193,
      "semi_major_axis_km": 6890.206117848826,
      "eccentricity": 0.0004371,
      "inclination_deg": 97.4286,
      "raan_deg": 166.2657,
      "arg_perigee_deg": 257.3345,
      "mean_anomaly_deg": 102.7401,
      "mean_motion_rev_day": 15.17939426
    },
    {
      "epoch": "2026-04-02T15:44:25.005408Z",
      "apogee_km": 515.0812882068103,
      "perigee_km": 508.98486572271213,
      "latitude_deg": 1.2103512808807214e-05,
      "longitude_deg": 100.32482284083322,
      "height_km": 516.0661935406109,
      "semi_major_axis_km": 6890.1700769647605,
      "eccentricity": 0.0004424,
      "inclination_deg": 97.4282,
      "raan_deg": 167.4304,
      "arg_perigee_deg": 252.0191,
      "mean_anomaly_deg": 108.0561,
      "mean_motion_rev_day": 15.17951336
    },
    {
      "epoch": "2026-04-02T22:04:06.974688Z",
      "apogee_km": 515.0689721242488,
      "perigee_km": 508.9604392280635,
      "latitude_deg": -3.654694057959779e-05,
      "longitude_deg": 5.398962268353309,
      "height_km": 516.1110286093385,
      "semi_major_axis_km": 6890.151705676156,
      "eccentricity": 0.00044328,
      "inclination_deg": 97.4281,
      "raan_deg": 167.6893,
      "arg_perigee_deg": 250.8053,
      "mean_anomaly_deg": 109.2701,
      "mean_motion_rev_day": 15.17957407
    },
    {
      "epoch": "2026-04-03T18:38:08.235744Z",
      "apogee_km": 515.0570156425238,
      "perigee_km": 508.91791474403635,
      "latitude_deg": 3.194201506538631e-05,
      "longitude_deg": 56.89024161304121,
      "height_km": 516.285537220134,
      "semi_major_axis_km": 6890.124465193279,
      "eccentricity": 0.0004455,
      "inclination_deg": 97.4281,
      "raan_deg": 168.5305,
      "arg_perigee_deg": 246.8663,
      "mean_anomaly_deg": 113.2102,
      "mean_motion_rev_day": 15.17966409
    },
    {
      "epoch": "2026-04-04T18:21:59.779008Z",
      "apogee_km": 515.0838468099082,
      "perigee_km": 508.829019991068,
      "latitude_deg": 2.177955201512812e-05,
      "longitude_deg": 60.92158169482504,
      "height_km": 516.5035410544143,
      "semi_major_axis_km": 6890.093433400488,
      "eccentricity": 0.0004539,
      "inclination_deg": 97.4275,
      "raan_deg": 169.5012,
      "arg_perigee_deg": 242.2746,
      "mean_anomaly_deg": 117.8028,
      "mean_motion_rev_day": 15.17976664
    },
    {
      "epoch": "2026-04-05T03:51:32.244768Z",
      "apogee_km": 515.0849333917276,
      "perigee_km": 508.80545028373126,
      "latitude_deg": 1.7296542317180385e-05,
      "longitude_deg": -81.4653292629705,
      "height_km": 516.5843730967767,
      "semi_major_axis_km": 6890.08219183773,
      "eccentricity": 0.00045569,
      "inclination_deg": 97.4274,
      "raan_deg": 169.8894,
      "arg_perigee_deg": 240.4792,
      "mean_anomaly_deg": 119.5988,
      "mean_motion_rev_day": 15.17980379
    },
    {
      "epoch": "2026-04-05T18:05:50.815104Z",
      "apogee_km": 515.093921990584,
      "perigee_km": 508.76470707405497,
      "latitude_deg": -6.145590134662004e-05,
      "longitude_deg": 64.9549494059445,
      "height_km": 516.7051903515272,
      "semi_major_axis_km": 6890.06631453232,
      "eccentricity": 0.0004593,
      "inclination_deg": 97.4272,
      "raan_deg": 170.4718,
      "arg_perigee_deg": 237.8546,
      "mean_anomaly_deg": 122.2242,
      "mean_motion_rev_day": 15.17985626
    },
    {
      "epoch": "2026-04-06T03:35:23.097696Z",
      "apogee_km": 515.0913857098058,
      "perigee_km": 508.74798612135146,
      "latitude_deg": 2.4653461919661923e-05,
      "longitude_deg": -77.43120830750937,
      "height_km": 516.7835056197267,
      "semi_major_axis_km": 6890.056685915579,
      "eccentricity": 0.00046033,
      "inclination_deg": 97.4271,
      "raan_deg": 170.86,
      "arg_perigee_deg": 236.0394,
      "mean_anomaly_deg": 124.0403,
      "mean_motion_rev_day": 15.17988808
    },
    {
      "epoch": "2026-04-07T17:33:31.553280Z",
      "apogee_km": 515.1434134188157,
      "perigee_km": 508.6350946192697,
      "latitude_deg": -8.159066125575362e-06,
      "longitude_deg": 73.02712803529741,
      "height_km": 517.1173206511988,
      "semi_major_axis_km": 6890.026254019042,
      "eccentricity": 0.0004723,
      "inclination_deg": 97.4269,
      "raan_deg": 172.4129,
      "arg_perigee_deg": 228.9707,
      "mean_anomaly_deg": 131.1119,
      "mean_motion_rev_day": 15.17998865
    },
    {
      "epoch": "2026-04-08T10:57:40.122432Z",
      "apogee_km": 515.1458406126403,
      "perigee_km": 508.60763097819563,
      "latitude_deg": 1.4581711907608656e-05,
      "longitude_deg": 171.98872772565943,
      "height_km": 517.2490959854853,
      "semi_major_axis_km": 6890.013735795418,
      "eccentricity": 0.00047447,
      "inclination_deg": 97.4269,
      "raan_deg": 173.1249,
      "arg_perigee_deg": 225.7635,
      "mean_anomaly_deg": 134.321,
      "mean_motion_rev_day": 15.18003002
    },
    {
      "epoch": "2026-04-09T18:36:06.309792Z",
      "apogee_km": 515.1904760305824,
      "perigee_km": 508.5126990915187,
      "latitude_deg": -1.3401508044955422e-05,
      "longitude_deg": 57.374379840502925,
      "height_km": 517.4836740673935,
      "semi_major_axis_km": 6889.98858756105,
      "eccentricity": 0.0004846,
      "inclination_deg": 97.4271,
      "raan_deg": 174.4191,
      "arg_perigee_deg": 220.4574,
      "mean_anomaly_deg": 139.63,
      "mean_motion_rev_day": 15.18011313
    },
    {
      "epoch": "2026-04-10T04:05:38.002272Z",
      "apogee_km": 515.1935437381444,
      "perigee_km": 508.49193604434276,
      "latitude_deg": 4.1949273474344564e-05,
      "longitude_deg": -85.00930860249798,
      "height_km": 517.5373839868732,
      "semi_major_axis_km": 6889.979739891243,
      "eccentricity": 0.00048633,
      "inclination_deg": 97.4266,
      "raan_deg": 174.8073,
      "arg_perigee_deg": 219.0251,
      "mean_anomaly_deg": 141.0633,
      "mean_motion_rev_day": 15.18014237
    },
    {
      "epoch": "2026-04-11T11:44:03.098400Z",
      "apogee_km": 515.2549458381854,
      "perigee_km": 508.3677534678718,
      "latitude_deg": -6.379087660820574e-05,
      "longitude_deg": 160.38081403274742,
      "height_km": 517.7906429624983,
      "semi_major_axis_km": 6889.948349653028,
      "eccentricity": 0.0004998,
      "inclination_deg": 97.4262,
      "raan_deg": 176.1014,
      "arg_perigee_deg": 212.9995,
      "mean_anomaly_deg": 147.0927,
      "mean_motion_rev_day": 15.18024611
    },
    {
      "epoch": "2026-04-12T16:12:37.207296Z",
      "apogee_km": 515.3252332177781,
      "perigee_km": 508.2696647446446,
      "latitude_deg": 3.2885291433228286e-05,
      "longitude_deg": 93.23400639045875,
      "height_km": 517.9919447322882,
      "semi_major_axis_km": 6889.934448981211,
      "eccentricity": 0.00051202,
      "inclination_deg": 97.427,
      "raan_deg": 177.2662,
      "arg_perigee_deg": 208.3879,
      "mean_anomaly_deg": 151.7077,
      "mean_motion_rev_day": 15.18029205
    }
  ]
}